{
    "links": {
        "self": "http://www.neowsapp.com/rest/v1/neo/3788078?api_key=iIulBulltgU6a56xZRHN4H3l9WmuAYTsLGpBGhQ2"
    },
    "id": "3788078",
    "neo_reference_id": "3788078",
    "name": "(2017 UK7)",
    "designation": "2017 UK7",
    "nasa_jpl_url": "http://ssd.jpl.nasa.gov/sbdb.cgi?sstr=3788078",
    "absolute_magnitude_h": 24.5,
    "estimated_diameter": {
        "kilometers": {
            "estimated_diameter_min": 0.0334622374,
            "estimated_diameter_max": 0.0748238376
        },
        "meters": {
            "estimated_diameter_min": 33.4622374455,
            "estimated_diameter_max": 74.8238376074
        },
        "miles": {
            "estimated_diameter_min": 0.0207924639,
            "estimated_diameter_max": 0.0464933628
        },
        "feet": {
            "estimated_diameter_min": 109.7842471007,
            "estimated_diameter_max": 245.4850393757
        }
    },
    "is_potentially_hazardous_asteroid": false,
    "close_approach_data": [
        {
            "close_approach_date": "2017-11-23",
            "close_approach_date_full": "2017-Nov-23 23:57",
            "epoch_date_close_approach": 1511481420000,
            "relative_velocity": {
                "kilometers_per_second": "9.1353011178",
                "kilometers_per_hour": "32887.0840242074",
                "miles_per_hour": "20434.755070486"
            },
            "miss_distance": {
                "astronomical": "0.0730811276",
                "lunar": "28.4285586364",
                "kilometers": "10932781.026158212",
                "miles": "6793315.1194468456"
            },
            "orbiting_body": "Earth"
        }
    ],
    "orbital_data": {
        "orbit_id": "3",
        "orbit_determination_date": "2017-11-13 06:20:50",
        "first_observation_date": "2017-10-25",
        "last_observation_date": "2017-11-13",
        "data_arc_in_days": 19,
        "observations_used": 31,
        "orbit_uncertainty": "8",
        "minimum_orbit_intersection": ".0422792",
        "jupiter_tisserand_invariant": "3.923",
        "epoch_osculation": "2458055.5",
        "eccentricity": ".4899843187739503",
        "semi_major_axis": "1.786295934228096",
        "inclination": "8.732813430877554",
        "ascending_node_longitude": "38.92229765505335",
        "orbital_period": "872.0242081096147",
        "perihelion_distance": ".9110389377666651",
        "perihelion_argument": "59.39486926931516",
        "aphelion_distance": "2.661552930689526",
        "perihelion_time": "2458111.604285803024",
        "mean_anomaly": "336.8383231781224",
        "mean_motion": ".4128325758070554",
        "equinox": "J2000",
        "orbit_class": {
            "orbit_class_type": "APO",
            "orbit_class_description": "Near-Earth asteroid orbits which cross the Earth’s orbit similar to that of 1862 Apollo",
            "orbit_class_range": "a (semi-major axis) > 1.0 AU; q (perihelion) < 1.017 AU"
        }
    },
    "is_sentry_object": false
}